[{"OBJECT_NAME":"STARLINK-3354","OBJECT_ID":"2022-005AU","EPOCH":"2026-03-09T21:54:02.599776","MEAN_MOTION":15.08835371,"ECCENTRICITY":0.00012815,"INCLINATION":53.2169,"RA_OF_ASC_NODE":298.1334,"ARG_OF_PERICENTER":67.0031,"MEAN_ANOMALY":293.1096,"EPHEMERIS_TYPE":0,"CLASSIFICATION_TYPE":"U","NORAD_CAT_ID":51146,"ELEMENT_SET_NO":999,"REV_AT_EPOCH":22876,"BSTAR":-0.00010150385,"MEAN_MOTION_DOT":-1.903e-5,"MEAN_MOTION_DDOT":0},{"OBJECT_NAME":"CZ-6A DEB","OBJECT_ID":"2024-140FD","EPOCH":"2026-03-09T14:27:44.906112","MEAN_MOTION":14.99694865,"ECCENTRICITY":0.0039811,"INCLINATION":89.0027,"RA_OF_ASC_NODE":280.8171,"ARG_OF_PERICENTER":188.2594,"MEAN_ANOMALY":171.7991,"EPHEMERIS_TYPE":0,"CLASSIFICATION_TYPE":"U","NORAD_CAT_ID":60778,"ELEMENT_SET_NO":999,"REV_AT_EPOCH":8450,"BSTAR":0.0048584,"MEAN_MOTION_DOT":0.00061368,"MEAN_MOTION_DDOT":0}]
